FORMOSAT 7-1            
1 44349U 19036L   26177.71505200  .00002718  00000+0  20731-3 0  9999
2 44349  23.9994 328.1593 0000429 316.5131  43.5336 14.96544530386088
FORMOSAT 7-4            
1 44350U 19036M   26177.87093052  .00002865  00000+0  21992-3 0  9998
2 44350  23.9998  29.2131 0000922 319.9758  40.0675 14.96537001385522
FORMOSAT 7-2            
1 44351U 19036N   26177.89327259  .00002525  00000+0  19082-3 0  9990
2 44351  23.9984  83.3765 0000377 314.4305  45.6165 14.96535157385046
FORMOSAT 7-6            
1 44353U 19036Q   26177.89294368  .00002400  00000+0  17996-3 0  9990
2 44353  23.9974 264.1971 0000911 194.5600 165.4875 14.96548949383279
FORMOSAT 7-5            
1 44358U 19036V   26177.73682216  .00002182  00000+0  16132-3 0  9999
2 44358  23.9968 203.9978 0000066  42.2011 317.8495 14.96550190383789
METEOR-M2 2             
1 44387U 19038A   26178.21961757  .00000502  00000+0  23700-3 0  9990
2 44387  98.9143 165.6531 0001660  34.2054 325.9230 14.24369931362726
GLOBAL-4                
1 44499U 19054E   26177.71712026  .00044441  00000+0  43890-3 0  9991
2 44499  45.0029 181.3770 0004619  39.9328 320.1909 15.65223230381851
ZY-1 02D                
1 44528U 19059A   26178.17622368  .00000094  00000+0  48699-4 0  9998
2 44528  98.6726 239.6439 0004121   1.1547 358.9647 14.35263622355778
TAURUS-1 (JINNIUZUO 1)  
1 44530U 19059C   26178.16618241  .00005567  00000+0  89112-3 0  9999
2 44530  98.6415 343.6144 0007205 279.7605  80.2787 14.72192225360114
ZHUHAI-1 03B            
1 44536U 19060C   26178.22632263  .00032402  00000+0  48951-3 0  9998
2 44536  97.5530 336.5374 0007523 275.9363  84.1033 15.54636864377886
ZHUHAI-1 03D            
1 44538U 19060E   26178.23021390  .00032737  00000+0  57743-3 0  9994
2 44538  97.5387 328.5756 0006690 259.1711 100.8787 15.50313719377630
ZHUHAI-1 03E            
1 44539U 19060F   26178.17724211  .00018647  00000+0  44805-3 0  9999
2 44539  97.5615 328.4731 0005097 356.8775   3.2438 15.41375669377307
GAOFEN-7                
1 44703U 19072A   26178.19685222  .00004425  00000+0  19984-3 0  9994
2 44703  97.2429 239.2857 0017759   7.4637 352.6860 15.21333895369160
JILIN-1 GAOFEN 2A       
1 44777U 19075A   26178.21030214  .00014421  00000+0  36819-3 0  9999
2 44777  97.4971 262.2354 0006875  57.4411 302.7498 15.39572988366421
NINGXIA-1 1             
1 44779U 19076A   26178.15765641 -.00000067  00000+0  41056-4 0  9996
2 44779  45.0045 135.2945 0011260 210.1403 149.8784 14.02039572339257
NINGXIA-1 5             
1 44783U 19076E   26178.17060684  .00000078  00000+0  13506-3 0  9997
2 44783  45.0038 134.5740 0010753 201.0879 158.9513 14.02088209339174
KL-ALPHA A              
1 44785U 19077A   26178.15539513  .00000089  00000+0  10933-3 0  9993
2 44785  88.9250 221.4749 0013380  81.6937 278.5733 13.56043882327085
CARTOSAT-3              
1 44804U 19081A   26178.16849249  .00004906  00000+0  23577-3 0  9991
2 44804  97.4311 239.8750 0013286 116.5257 243.7342 15.19208400364983
JILIN-1 GAOFEN 2B       
1 44836U 19086A   26178.21439609  .00006712  00000+0  30688-3 0  9990
2 44836  97.4885 250.1426 0012427 285.2790  74.7071 15.20815258362012
TIANQIN 1 (CAS-6)       
1 44879U 19093A   26178.19275049  .00004214  00000+0  38538-3 0  9995
2 44879  97.7818 261.9604 0011787  28.8594 331.3277 14.95487120353549
ETRSS-1                 
1 44880U 19093B   26178.19665950  .00004145  00000+0  37493-3 0  9993
2 44880  97.7838 262.4326 0011962  29.1262 331.0623 14.95925890353555
TIANYAN 01              
1 44881U 19093C   26178.20890713  .00000789  00000+0  95021-4 0  9995
2 44881  97.7532 250.1965 0014872  57.0951 303.1694 14.86533217352902
TIANYAN 02              
1 44882U 19093D   26178.22362352  .00007155  00000+0  50311-3 0  9997
2 44882  97.7931 273.1099 0013188 353.6650   6.4407 15.05333599354123
CBERS 4A                
1 44883U 19093E   26178.15380949  .00001536  00000+0  20316-3 0  9991
2 44883  98.0194 245.6023 0000489 105.6740 254.4526 14.81416827352556
WEILAI 1R               
1 44884U 19093F   26178.18961308  .00005126  00000+0  40794-3 0  9990
2 44884  97.7868 268.0913 0017480   6.4148 353.7296 15.00726632353926
FLORIPASAT-1            
1 44885U 19093G   26178.20561787  .00007713  00000+0  56192-3 0  9994
2 44885  97.7929 272.5085 0012139  40.8494 319.3638 15.03982617354151
SHUNTIAN                
1 44886U 19093H   26178.17959531  .00003159  00000+0  29237-3 0  9999
2 44886  97.8010 266.2888 0012304  37.7261 322.4819 14.95201724353671
