OBJECT_NAME,OBJECT_ID,EPOCH,MEAN_MOTION,ECCENTRICITY,INCLINATION,RA_OF_ASC_NODE,ARG_OF_PERICENTER,MEAN_ANOMALY,EPHEMERIS_TYPE,CLASSIFICATION_TYPE,NORAD_CAT_ID,ELEMENT_SET_NO,REV_AT_EPOCH,BSTAR,MEAN_MOTION_DOT,MEAN_MOTION_DDOT
FORMOSAT 7-1,2019-036L,2026-06-26T17:09:40.492800,14.96544530,.00004297,23.9994,328.1593,316.5131,43.5336,0,U,44349,999,38608,.2073075E-3,.2718E-4,0
FORMOSAT 7-4,2019-036M,2026-06-26T20:54:08.396928,14.96537001,.0000922,23.9998,29.2131,319.9758,40.0675,0,U,44350,999,38552,.21992E-3,.2865E-4,0
FORMOSAT 7-2,2019-036N,2026-06-26T21:26:18.751776,14.96535157,.0000377,23.9984,83.3765,314.4305,45.6165,0,U,44351,999,38504,.19082E-3,.2525E-4,0
FORMOSAT 7-6,2019-036Q,2026-06-26T21:25:50.333952,14.96548949,.0000911,23.9974,264.1971,194.5600,165.4875,0,U,44353,999,38327,.17996E-3,.24E-4,0
FORMOSAT 7-5,2019-036V,2026-06-26T17:41:01.434624,14.96550190,.00000667,23.9968,203.9978,42.2011,317.8495,0,U,44358,999,38378,.16131649E-3,.2182E-4,0
METEOR-M2 2,2019-038A,2026-06-27T05:16:14.958048,14.24369931,.000166,98.9143,165.6531,34.2054,325.9230,0,U,44387,999,36272,.237E-3,.502E-5,0
GLOBAL-4,2019-054E,2026-06-26T17:12:39.190464,15.65223230,.00046198,45.0029,181.3770,39.9328,320.1909,0,U,44499,999,38185,.43889745E-3,.44441E-3,0
ZY-1 02D,2019-059A,2026-06-27T04:13:45.725952,14.35263622,.0004121,98.6726,239.6439,1.1547,358.9647,0,U,44528,999,35577,.48699E-4,.94E-6,0
TAURUS-1 (JINNIUZUO 1),2019-059C,2026-06-27T03:59:18.160224,14.72192225,.0007205,98.6415,343.6144,279.7605,80.2787,0,U,44530,999,36011,.89112E-3,.5567E-4,0
ZHUHAI-1 03B,2019-060C,2026-06-27T05:25:54.275232,15.54636864,.0007523,97.5530,336.5374,275.9363,84.1033,0,U,44536,999,37788,.48951E-3,.32402E-3,0
ZHUHAI-1 03D,2019-060E,2026-06-27T05:31:30.480960,15.50313719,.000669,97.5387,328.5756,259.1711,100.8787,0,U,44538,999,37763,.57743E-3,.32737E-3,0
ZHUHAI-1 03E,2019-060F,2026-06-27T04:15:13.718304,15.41375669,.0005097,97.5615,328.4731,356.8775,3.2438,0,U,44539,999,37730,.44805E-3,.18647E-3,0
GAOFEN-7,2019-072A,2026-06-27T04:43:28.031808,15.21333895,.0017759,97.2429,239.2857,7.4637,352.6860,0,U,44703,999,36916,.19984E-3,.4425E-4,0
JILIN-1 GAOFEN 2A,2019-075A,2026-06-27T05:02:50.104896,15.39572988,.0006875,97.4971,262.2354,57.4411,302.7498,0,U,44777,999,36642,.36819E-3,.14421E-3,0
NINGXIA-1 1,2019-076A,2026-06-27T03:47:01.513824,14.02039572,.001126,45.0045,135.2945,210.1403,149.8784,0,U,44779,999,33925,.41056E-4,-.67E-6,0
NINGXIA-1 5,2019-076E,2026-06-27T04:05:40.430976,14.02088209,.0010753,45.0038,134.5740,201.0879,158.9513,0,U,44783,999,33917,.13506E-3,.78E-6,0
KL-ALPHA A,2019-077A,2026-06-27T03:43:46.139232,13.56043882,.001338,88.9250,221.4749,81.6937,278.5733,0,U,44785,999,32708,.10933E-3,.89E-6,0
CARTOSAT-3,2019-081A,2026-06-27T04:02:37.751136,15.19208400,.0013286,97.4311,239.8750,116.5257,243.7342,0,U,44804,999,36498,.23577E-3,.4906E-4,0
JILIN-1 GAOFEN 2B,2019-086A,2026-06-27T05:08:43.822176,15.20815258,.0012427,97.4885,250.1426,285.2790,74.7071,0,U,44836,999,36201,.30688E-3,.6712E-4,0
TIANQIN 1 (CAS-6),2019-093A,2026-06-27T04:37:33.642336,14.95487120,.0011787,97.7818,261.9604,28.8594,331.3277,0,U,44879,999,35354,.38538E-3,.4214E-4,0
ETRSS-1,2019-093B,2026-06-27T04:43:11.380800,14.95925890,.0011962,97.7838,262.4326,29.1262,331.0623,0,U,44880,999,35355,.37493E-3,.4145E-4,0
TIANYAN 01,2019-093C,2026-06-27T05:00:49.576032,14.86533217,.0014872,97.7532,250.1965,57.0951,303.1694,0,U,44881,999,35290,.95021E-4,.789E-5,0
TIANYAN 02,2019-093D,2026-06-27T05:22:01.072128,15.05333599,.0013188,97.7931,273.1099,353.6650,6.4407,0,U,44882,999,35412,.50311E-3,.7155E-4,0
CBERS 4A,2019-093E,2026-06-27T03:41:29.139936,14.81416827,.0000489,98.0194,245.6023,105.6740,254.4526,0,U,44883,999,35255,.20316E-3,.1536E-4,0
WEILAI 1R,2019-093F,2026-06-27T04:33:02.570112,15.00726632,.001748,97.7868,268.0913,6.4148,353.7296,0,U,44884,999,35392,.40794E-3,.5126E-4,0
FLORIPASAT-1,2019-093G,2026-06-27T04:56:05.383968,15.03982617,.0012139,97.7929,272.5085,40.8494,319.3638,0,U,44885,999,35415,.56192E-3,.7713E-4,0
SHUNTIAN,2019-093H,2026-06-27T04:18:37.034784,14.95201724,.0012304,97.8010,266.2888,37.7261,322.4819,0,U,44886,999,35367,.29237E-3,.3159E-4,0
